CS1                     
1 49261U 21088B   26068.75173904  .00015722  00000+0  51176-3 0  9998
2 49261  97.3882 132.1684 0014129  78.0335 282.2490 15.31848439245182
STARLINK-35832          
1 66495U 25263L   26068.12481431  .00046717  00000+0  16968-2 0  9990
2 66495  43.0046 353.7896 0001688 256.5212 103.5452 15.27574085 18818
